[{"OBJECT_NAME":"STARLINK-35378","OBJECT_ID":"2025-218D","EPOCH":"2026-03-09T14:28:38.342784","MEAN_MOTION":15.05646866,"ECCENTRICITY":0.0002203,"INCLINATION":97.6019,"RA_OF_ASC_NODE":292.8217,"ARG_OF_PERICENTER":78.1409,"MEAN_ANOMALY":282.0065,"EPHEMERIS_TYPE":0,"CLASSIFICATION_TYPE":"U","NORAD_CAT_ID":65794,"ELEMENT_SET_NO":999,"REV_AT_EPOCH":2495,"BSTAR":0.00021931,"MEAN_MOTION_DOT":3.105e-5,"MEAN_MOTION_DDOT":0},{"OBJECT_NAME":"ELECTRON KICK STAGE R\/B","OBJECT_ID":"2025-050C","EPOCH":"2026-03-09T00:02:16.856736","MEAN_MOTION":15.02509392,"ECCENTRICITY":0.00035941,"INCLINATION":42.0177,"RA_OF_ASC_NODE":293.46,"ARG_OF_PERICENTER":187.3175,"MEAN_ANOMALY":172.76,"EPHEMERIS_TYPE":0,"CLASSIFICATION_TYPE":"U","NORAD_CAT_ID":63207,"ELEMENT_SET_NO":999,"REV_AT_EPOCH":5391,"BSTAR":0.00054837611,"MEAN_MOTION_DOT":7.227e-5,"MEAN_MOTION_DDOT":0}]
